{"fetched_at":"2026-07-08T07:03:51.251Z","source":"https://celestrak.org/NORAD/elements/gp.php?NAME=EROS&FORMAT=JSON","constellation":"eros","records":[{"OBJECT_NAME":"EROS C3","OBJECT_ID":"2022-179A","EPOCH":"2026-07-07T17:04:56.361216","CLASSIFICATION_TYPE":"U","MEAN_MOTION":15.10990398,"ECCENTRICITY":0.0006151,"INCLINATION":139.3345,"RA_OF_ASC_NODE":122.1476,"ARG_OF_PERICENTER":122.4962,"MEAN_ANOMALY":237.6441,"EPHEMERIS_TYPE":0,"NORAD_CAT_ID":54880,"ELEMENT_SET_NO":999,"REV_AT_EPOCH":19543,"BSTAR":0.00018804,"MEAN_MOTION_DOT":0.00003441,"MEAN_MOTION_DDOT":0}]}
