EROS C3                 
1 54880U 22179A   26188.71176344  .00003441  00000+0  18804-3 0  9999
2 54880 139.3345 122.1476 0006151 122.4962 237.6441 15.10990398195431
